start=new Date('2022-05-06T00:00:00.000Z').valueOf();
sats=[{"MEAN_MOTION_DDOT":"0.0000000000000","EPOCH":"2022-05-05T22:00:00.999936","NORAD_CAT_ID":"48277","ECCENTRICITY":"0.00015060","REV_AT_EPOCH":"360","SITE":"AFETR","RA_OF_ASC_NODE":"193.4076","MEAN_ANOMALY":"350.4788","TLE_LINE2":"2 48277  53.0533 193.4076 0001506  61.4163 350.4788 15.06412882  3603","CLASSIFICATION_TYPE":"U","TIME_SYSTEM":"UTC","GP_ID":"202803488","SEMIMAJOR_AXIS":"6925.309","TLE_LINE1":"1 48277U 21036B   22125.91667824 -.00012614  00000-0 -82911-3 0  9995","ELEMENT_SET_NO":"999","APOAPSIS":"548.217","EPHEMERIS_TYPE":"0","MEAN_ELEMENT_THEORY":"SGP4","CENTER_NAME":"EARTH","MEAN_MOTION":"15.06412882","BSTAR":"-0.00082911000000","OBJECT_NAME":"STARLINK-2569","REF_FRAME":"TEME","INCLINATION":"53.0533","ARG_OF_PERICENTER":"61.4163","COUNTRY_CODE":"US","RCS_SIZE":"LARGE","PERIAPSIS":"546.131","OBJECT_TYPE":"PAYLOAD","PERIOD":"95.591","DECAY_DATE":null,"FILE":"3430750","LAUNCH_DATE":"2021-04-29","MEAN_MOTION_DOT":"-0.00012614","OBJECT_ID":"2021-036B"},{"DECAY_DATE":null,"OBJECT_TYPE":"PAYLOAD","PERIOD":"95.593","RCS_SIZE":"LARGE","PERIAPSIS":"545.972","COUNTRY_CODE":"US","ARG_OF_PERICENTER":"39.5718","INCLINATION":"53.0454","REF_FRAME":"TEME","OBJECT_NAME":"STARLINK-2543","OBJECT_ID":"2021-036C","MEAN_MOTION_DOT":"-0.00025903","FILE":"3430380","LAUNCH_DATE":"2021-04-29","TIME_SYSTEM":"UTC","CLASSIFICATION_TYPE":"U","TLE_LINE2":"2 48278  53.0454 208.4871 0001820  39.5718 169.8529 15.06393964 58083","MEAN_ANOMALY":"169.8529","RA_OF_ASC_NODE":"208.4871","REV_AT_EPOCH":"5808","SITE":"AFETR","ECCENTRICITY":"0.00018200","NORAD_CAT_ID":"48278","EPOCH":"2022-05-05T22:00:00.999936","MEAN_MOTION_DDOT":"0.0000000000000","BSTAR":"-0.00172660000000","MEAN_MOTION":"15.06393964","CENTER_NAME":"EARTH","MEAN_ELEMENT_THEORY":"SGP4","EPHEMERIS_TYPE":"0","APOAPSIS":"548.492","ELEMENT_SET_NO":"999","TLE_LINE1":"1 48278U 21036C   22125.91667824 -.00025903  00000-0 -17266-2 0  9991","SEMIMAJOR_AXIS":"6925.367","GP_ID":"202773255"},{"PERIAPSIS":"545.970","RCS_SIZE":"LARGE","COUNTRY_CODE":"US","ARG_OF_PERICENTER":"48.4671","INCLINATION":"53.0528","REF_FRAME":"TEME","OBJECT_NAME":"STARLINK-2580","DECAY_DATE":null,"PERIOD":"95.591","OBJECT_TYPE":"PAYLOAD","LAUNCH_DATE":"2021-04-29","FILE":"3430380","MEAN_MOTION_DOT":"-0.00058791","OBJECT_ID":"2021-036D","MEAN_ANOMALY":"200.9559","RA_OF_ASC_NODE":"208.4117","SITE":"AFETR","REV_AT_EPOCH":"5808","NORAD_CAT_ID":"48279","ECCENTRICITY":"0.00017060","EPOCH":"2022-05-05T22:00:00.999936","MEAN_MOTION_DDOT":"0.0000000000000","TIME_SYSTEM":"UTC","TLE_LINE2":"2 48279  53.0528 208.4117 0001706  48.4671 200.9559 15.06420149 58085","CLASSIFICATION_TYPE":"U","APOAPSIS":"548.333","EPHEMERIS_TYPE":"0","TLE_LINE1":"1 48279U 21036D   22125.91667824 -.00058791  00000-0 -39585-2 0  9991","ELEMENT_SET_NO":"999","GP_ID":"202772954","SEMIMAJOR_AXIS":"6925.287","BSTAR":"-0.00395850000000","MEAN_MOTION":"15.06420149","CENTER_NAME":"EARTH","MEAN_ELEMENT_THEORY":"SGP4"},{"ARG_OF_PERICENTER":"72.3612","RCS_SIZE":"LARGE","PERIAPSIS":"546.173","COUNTRY_CODE":"US","OBJECT_NAME":"STARLINK-2565","INCLINATION":"53.0551","REF_FRAME":"TEME","DECAY_DATE":null,"OBJECT_TYPE":"PAYLOAD","PERIOD":"95.592","MEAN_MOTION_DOT":"-0.00000494","FILE":"3430750","LAUNCH_DATE":"2021-04-29","OBJECT_ID":"2021-036E","RA_OF_ASC_NODE":"278.9267","REV_AT_EPOCH":"5650","SITE":"AFETR","MEAN_ANOMALY":"287.7542","EPOCH":"2022-05-05T19:09:02.160288","MEAN_MOTION_DDOT":"0.0000000000000","ECCENTRICITY":"0.00015080","NORAD_CAT_ID":"48280","TLE_LINE2":"2 48280  53.0551 278.9267 0001508  72.3612 287.7542 15.06398675 56500","CLASSIFICATION_TYPE":"U","TIME_SYSTEM":"UTC","EPHEMERIS_TYPE":"0","APOAPSIS":"548.262","TLE_LINE1":"1 48280U 21036E   22125.79794167 -.00000494  00000-0 -14300-4 0  9997","ELEMENT_SET_NO":"999","GP_ID":"202802737","SEMIMAJOR_AXIS":"6925.353","MEAN_MOTION":"15.06398675","BSTAR":"-0.00001430000000","MEAN_ELEMENT_THEORY":"SGP4","CENTER_NAME":"EARTH"},{"EPOCH":"2022-05-05T16:16:31.531008","MEAN_MOTION_DDOT":"0.0000000000000","ECCENTRICITY":"0.00014850","NORAD_CAT_ID":"48281","RA_OF_ASC_NODE":"259.4771","REV_AT_EPOCH":"5676","SITE":"AFETR","MEAN_ANOMALY":"282.5786","TLE_LINE2":"2 48281  53.0536 259.4771 0001485  77.5369 282.5786 15.06406673 56767","CLASSIFICATION_TYPE":"U","TIME_SYSTEM":"UTC","GP_ID":"202803986","SEMIMAJOR_AXIS":"6925.328","APOAPSIS":"548.222","EPHEMERIS_TYPE":"0","TLE_LINE1":"1 48281U 21036F   22125.67814272  .00002560  00000-0  19064-3 0  9990","ELEMENT_SET_NO":"999","MEAN_ELEMENT_THEORY":"SGP4","CENTER_NAME":"EARTH","MEAN_MOTION":"15.06406673","BSTAR":"0.00019064000000","OBJECT_NAME":"STARLINK-2520","INCLINATION":"53.0536","REF_FRAME":"TEME","ARG_OF_PERICENTER":"77.5369","PERIAPSIS":"546.165","RCS_SIZE":"LARGE","COUNTRY_CODE":"US","PERIOD":"95.592","OBJECT_TYPE":"PAYLOAD","DECAY_DATE":null,"FILE":"3430750","MEAN_MOTION_DOT":"0.00002560","LAUNCH_DATE":"2021-04-29","OBJECT_ID":"2021-036F"},{"BSTAR":"0.00009500300000","MEAN_MOTION":"15.06408627","CENTER_NAME":"EARTH","MEAN_ELEMENT_THEORY":"SGP4","ELEMENT_SET_NO":"999","TLE_LINE1":"1 48282U 21036G   22125.83433055  .00001134  00000-0  95003-4 0  9999","APOAPSIS":"548.157","EPHEMERIS_TYPE":"0","GP_ID":"202803729","SEMIMAJOR_AXIS":"6925.322","TIME_SYSTEM":"UTC","TLE_LINE2":"2 48282  53.0550 263.7770 0001400  64.5015 295.6119 15.06408627 56724","CLASSIFICATION_TYPE":"U","MEAN_ANOMALY":"295.6119","SITE":"AFETR","REV_AT_EPOCH":"5672","RA_OF_ASC_NODE":"263.7770","NORAD_CAT_ID":"48282","ECCENTRICITY":"0.00014000","MEAN_MOTION_DDOT":"0.0000000000000","EPOCH":"2022-05-05T20:01:26.159520","OBJECT_ID":"2021-036G","FILE":"3430750","MEAN_MOTION_DOT":"0.00001134","LAUNCH_DATE":"2021-04-29","DECAY_DATE":null,"OBJECT_TYPE":"PAYLOAD","PERIOD":"95.592","COUNTRY_CODE":"US","PERIAPSIS":"546.218","RCS_SIZE":"LARGE","ARG_OF_PERICENTER":"64.5015","REF_FRAME":"TEME","INCLINATION":"53.0550","OBJECT_NAME":"STARLINK-2558"},{"SEMIMAJOR_AXIS":"6925.321","GP_ID":"202802487","ELEMENT_SET_NO":"999","TLE_LINE1":"1 48283U 21036H   22125.69795460  .00002699  00000-0  19997-3 0  9999","EPHEMERIS_TYPE":"0","APOAPSIS":"548.187","CENTER_NAME":"EARTH","MEAN_ELEMENT_THEORY":"SGP4","BSTAR":"0.00019997000000","MEAN_MOTION":"15.06409022","ECCENTRICITY":"0.00014460","NORAD_CAT_ID":"48283","MEAN_MOTION_DDOT":"0.0000000000000","EPOCH":"2022-05-05T16:45:03.277440","MEAN_ANOMALY":"293.1450","REV_AT_EPOCH":"5670","SITE":"AFETR","RA_OF_ASC_NODE":"264.3917","TIME_SYSTEM":"UTC","CLASSIFICATION_TYPE":"U","TLE_LINE2":"2 48283  53.0550 264.3917 0001446  66.9692 293.1450 15.06409022 56701","FILE":"3430750","LAUNCH_DATE":"2021-04-29","MEAN_MOTION_DOT":"0.00002699","OBJECT_ID":"2021-036H","REF_FRAME":"TEME","INCLINATION":"53.0550","OBJECT_NAME":"STARLINK-2516","COUNTRY_CODE":"US","PERIAPSIS":"546.185","RCS_SIZE":"LARGE","ARG_OF_PERICENTER":"66.9692","OBJECT_TYPE":"PAYLOAD","PERIOD":"95.592","DECAY_DATE":null},{"LAUNCH_DATE":"2021-04-29","FILE":"3429148","MEAN_MOTION_DOT":"0.00001597","OBJECT_ID":"2021-036J","ARG_OF_PERICENTER":"68.6241","COUNTRY_CODE":"US","RCS_SIZE":"LARGE","PERIAPSIS":"546.089","OBJECT_NAME":"STARLINK-2564","REF_FRAME":"TEME","INCLINATION":"53.0554","DECAY_DATE":null,"OBJECT_TYPE":"PAYLOAD","PERIOD":"95.592","TLE_LINE1":"1 48284U 21036J   22124.76541303  .00001597  00000-0  12608-3 0  9990","ELEMENT_SET_NO":"999","APOAPSIS":"548.305","EPHEMERIS_TYPE":"0","GP_ID":"202715443","SEMIMAJOR_AXIS":"6925.332","MEAN_MOTION":"15.06405490","BSTAR":"0.00012608000000","MEAN_ELEMENT_THEORY":"SGP4","CENTER_NAME":"EARTH","SITE":"AFETR","REV_AT_EPOCH":"5655","RA_OF_ASC_NODE":"268.5604","MEAN_ANOMALY":"291.4919","MEAN_MOTION_DDOT":"0.0000000000000","EPOCH":"2022-05-04T18:22:11.685792","NORAD_CAT_ID":"48284","ECCENTRICITY":"0.00016000","TLE_LINE2":"2 48284  53.0554 268.5604 0001600  68.6241 291.4919 15.06405490 56555","CLASSIFICATION_TYPE":"U","TIME_SYSTEM":"UTC"},{"REF_FRAME":"TEME","INCLINATION":"53.0560","OBJECT_NAME":"STARLINK-2548","COUNTRY_CODE":"US","PERIAPSIS":"546.284","RCS_SIZE":"LARGE","ARG_OF_PERICENTER":"65.8526","PERIOD":"95.592","OBJECT_TYPE":"PAYLOAD","DECAY_DATE":null,"LAUNCH_DATE":"2021-04-29","FILE":"3430750","MEAN_MOTION_DOT":"0.00000739","OBJECT_ID":"2021-036K","ECCENTRICITY":"0.00013470","NORAD_CAT_ID":"48285","MEAN_MOTION_DDOT":"0.0000000000000","EPOCH":"2022-05-05T19:45:31.140576","MEAN_ANOMALY":"294.2604","SITE":"AFETR","REV_AT_EPOCH":"5671","RA_OF_ASC_NODE":"263.8249","TIME_SYSTEM":"UTC","CLASSIFICATION_TYPE":"U","TLE_LINE2":"2 48285  53.0560 263.8249 0001347  65.8526 294.2604 15.06398817 56713","SEMIMAJOR_AXIS":"6925.352","GP_ID":"202803489","TLE_LINE1":"1 48285U 21036K   22125.82327709  .00000739  00000-0  68506-4 0  9997","ELEMENT_SET_NO":"999","EPHEMERIS_TYPE":"0","APOAPSIS":"548.150","CENTER_NAME":"EARTH","MEAN_ELEMENT_THEORY":"SGP4","BSTAR":"0.00006850600000","MEAN_MOTION":"15.06398817"},{"BSTAR":"-0.00052149000000","MEAN_MOTION":"15.06432220","CENTER_NAME":"EARTH","MEAN_ELEMENT_THEORY":"SGP4","ELEMENT_SET_NO":"999","TLE_LINE1":"1 48286U 21036L   22125.81957883 -.00008047  00000-0 -52149-3 0  9996","APOAPSIS":"548.046","EPHEMERIS_TYPE":"0","SEMIMAJOR_AXIS":"6925.250","GP_ID":"202804228","TIME_SYSTEM":"UTC","TLE_LINE2":"2 48286  53.0529 263.8515 0001344  63.6146 296.4981 15.06432220 56715","CLASSIFICATION_TYPE":"U","MEAN_ANOMALY":"296.4981","SITE":"AFETR","REV_AT_EPOCH":"5671","RA_OF_ASC_NODE":"263.8515","ECCENTRICITY":"0.00013440","NORAD_CAT_ID":"48286","MEAN_MOTION_DDOT":"0.0000000000000","EPOCH":"2022-05-05T19:40:11.610912","OBJECT_ID":"2021-036L","LAUNCH_DATE":"2021-04-29","FILE":"3430750","MEAN_MOTION_DOT":"-0.00008047","DECAY_DATE":null,"PERIOD":"95.590","OBJECT_TYPE":"PAYLOAD","COUNTRY_CODE":"US","RCS_SIZE":"LARGE","PERIAPSIS":"546.184","ARG_OF_PERICENTER":"63.6146","REF_FRAME":"TEME","INCLINATION":"53.0529","OBJECT_NAME":"STARLINK-2547"}];
